STARLINK-36785          
1 67853U 26034D   26060.50003471  .00059140  00000+0  30149-3 0  9996
2 67853  53.1540 252.3740 0000711  75.7361 222.8197 15.80846499  2546
STARLINK-36608          
1 67854U 26034E   26060.50003471  .00076658  00000+0  38891-3 0  9992
2 67854  53.1528 252.3652 0000595  58.9561 243.8673 15.80849002  2545
STARLINK-36838          
1 67855U 26034F   26060.50003471  .00103657  00000+0  52353-3 0  9992
2 67855  53.1531 252.3563 0001299  75.2227 231.8783 15.80826957  2547
STARLINK-36843          
1 67856U 26034G   26060.50003471 -.00324585  00000+0 -16866-2 0  9998
2 67856  53.1527 252.3391 0000918  86.3281 229.1970 15.81086897  2542
STARLINK-36828          
1 67857U 26034H   26060.50003471 -.00060915  00000+0 -30668-3 0  9990
2 67857  53.1531 252.3481 0000848 101.9599 209.3771 15.80913944  2546
STARLINK-36837          
1 67858U 26034J   26060.50003471 -.00758145  00000+0 -40921-2 0  9992
2 67858  53.1525 252.3301 0001388 106.9348 212.7068 15.81359447  2548
STARLINK-36393          
1 67859U 26034K   26060.50003471 -.00968945  00000+0 -52941-2 0  9999
2 67859  53.1520 252.3218 0000871  90.8722 232.8442 15.81637052  2544
STARLINK-35873          
1 67860U 26034L   26060.50003471 -.01273144  00000+0 -69399-2 0  9997
2 67860  53.1518 252.3136 0000792  89.0789 238.6152 15.81982143  2688
STARLINK-36325          
1 67861U 26034M   26060.50003471 -.01439689  00000+0 -77085-2 0  9997
2 67861  53.1518 252.3051 0000896  85.7016 245.9590 15.82250436  2542
STARLINK-36332          
1 67862U 26034N   26060.50003471 -.01472438  00000+0 -78228-2 0  9997
2 67862  53.1514 252.2972 0000673  78.9137 256.6887 15.82478111  2541
STARLINK-36835          
1 67863U 26034P   26060.50003471 -.01477515  00000+0 -77841-2 0  9999
2 67863  53.1511 252.2882 0000855 101.0059 238.5078 15.82662862  2541
STARLINK-36831          
1 67864U 26034Q   26060.50003471 -.01513684  00000+0 -79116-2 0  9995
2 67864  53.1507 252.2807 0000636  86.0981 257.2289 15.82900214  2545
