CCSDS_OMM_VERS = 2.0
CREATION_DATE  = 
ORIGINATOR     = 

OBJECT_NAME    = STARLINK-36785
OBJECT_ID      = 2026-034D
CENTER_NAME    = EARTH
REF_FRAME      = TEME
TIME_SYSTEM    = UTC
MEAN_ELEMENT_THEORY = SGP/SGP4

EPOCH          = 2026-03-01T12:00:02.998944
MEAN_MOTION    = 15.80846499
ECCENTRICITY   = .0000711
INCLINATION    = 53.1540
RA_OF_ASC_NODE = 252.3740
ARG_OF_PERICENTER = 75.7361
MEAN_ANOMALY   = 222.8197

EPHEMERIS_TYPE = 0
CLASSIFICATION_TYPE = U
NORAD_CAT_ID   = 67853
ELEMENT_SET_NO = 999
REV_AT_EPOCH   = 254
BSTAR          = .30149E-3
MEAN_MOTION_DOT = .5914E-3
MEAN_MOTION_DDOT = 0

CCSDS_OMM_VERS = 2.0
CREATION_DATE  = 
ORIGINATOR     = 

OBJECT_NAME    = STARLINK-36608
OBJECT_ID      = 2026-034E
CENTER_NAME    = EARTH
REF_FRAME      = TEME
TIME_SYSTEM    = UTC
MEAN_ELEMENT_THEORY = SGP/SGP4

EPOCH          = 2026-03-01T12:00:02.998944
MEAN_MOTION    = 15.80849002
ECCENTRICITY   = .0000595
INCLINATION    = 53.1528
RA_OF_ASC_NODE = 252.3652
ARG_OF_PERICENTER = 58.9561
MEAN_ANOMALY   = 243.8673

EPHEMERIS_TYPE = 0
CLASSIFICATION_TYPE = U
NORAD_CAT_ID   = 67854
ELEMENT_SET_NO = 999
REV_AT_EPOCH   = 254
BSTAR          = .38891E-3
MEAN_MOTION_DOT = .76658E-3
MEAN_MOTION_DDOT = 0

CCSDS_OMM_VERS = 2.0
CREATION_DATE  = 
ORIGINATOR     = 

OBJECT_NAME    = STARLINK-36838
OBJECT_ID      = 2026-034F
CENTER_NAME    = EARTH
REF_FRAME      = TEME
TIME_SYSTEM    = UTC
MEAN_ELEMENT_THEORY = SGP/SGP4

EPOCH          = 2026-03-01T12:00:02.998944
MEAN_MOTION    = 15.80826957
ECCENTRICITY   = .0001299
INCLINATION    = 53.1531
RA_OF_ASC_NODE = 252.3563
ARG_OF_PERICENTER = 75.2227
MEAN_ANOMALY   = 231.8783

EPHEMERIS_TYPE = 0
CLASSIFICATION_TYPE = U
NORAD_CAT_ID   = 67855
ELEMENT_SET_NO = 999
REV_AT_EPOCH   = 254
BSTAR          = .52353E-3
MEAN_MOTION_DOT = .103657E-2
MEAN_MOTION_DDOT = 0

CCSDS_OMM_VERS = 2.0
CREATION_DATE  = 
ORIGINATOR     = 

OBJECT_NAME    = STARLINK-36843
OBJECT_ID      = 2026-034G
CENTER_NAME    = EARTH
REF_FRAME      = TEME
TIME_SYSTEM    = UTC
MEAN_ELEMENT_THEORY = SGP/SGP4

EPOCH          = 2026-03-01T12:00:02.998944
MEAN_MOTION    = 15.81086897
ECCENTRICITY   = .0000918
INCLINATION    = 53.1527
RA_OF_ASC_NODE = 252.3391
ARG_OF_PERICENTER = 86.3281
MEAN_ANOMALY   = 229.1970

EPHEMERIS_TYPE = 0
CLASSIFICATION_TYPE = U
NORAD_CAT_ID   = 67856
ELEMENT_SET_NO = 999
REV_AT_EPOCH   = 254
BSTAR          = -.16866E-2
MEAN_MOTION_DOT = -.324585E-2
MEAN_MOTION_DDOT = 0

CCSDS_OMM_VERS = 2.0
CREATION_DATE  = 
ORIGINATOR     = 

OBJECT_NAME    = STARLINK-36828
OBJECT_ID      = 2026-034H
CENTER_NAME    = EARTH
REF_FRAME      = TEME
TIME_SYSTEM    = UTC
MEAN_ELEMENT_THEORY = SGP/SGP4

EPOCH          = 2026-03-01T12:00:02.998944
MEAN_MOTION    = 15.80913944
ECCENTRICITY   = .0000848
INCLINATION    = 53.1531
RA_OF_ASC_NODE = 252.3481
ARG_OF_PERICENTER = 101.9599
MEAN_ANOMALY   = 209.3771

EPHEMERIS_TYPE = 0
CLASSIFICATION_TYPE = U
NORAD_CAT_ID   = 67857
ELEMENT_SET_NO = 999
REV_AT_EPOCH   = 254
BSTAR          = -.30668E-3
MEAN_MOTION_DOT = -.60915E-3
MEAN_MOTION_DDOT = 0

CCSDS_OMM_VERS = 2.0
CREATION_DATE  = 
ORIGINATOR     = 

OBJECT_NAME    = STARLINK-36837
OBJECT_ID      = 2026-034J
CENTER_NAME    = EARTH
REF_FRAME      = TEME
TIME_SYSTEM    = UTC
MEAN_ELEMENT_THEORY = SGP/SGP4

EPOCH          = 2026-03-01T12:00:02.998944
MEAN_MOTION    = 15.81359447
ECCENTRICITY   = .0001388
INCLINATION    = 53.1525
RA_OF_ASC_NODE = 252.3301
ARG_OF_PERICENTER = 106.9348
MEAN_ANOMALY   = 212.7068

EPHEMERIS_TYPE = 0
CLASSIFICATION_TYPE = U
NORAD_CAT_ID   = 67858
ELEMENT_SET_NO = 999
REV_AT_EPOCH   = 254
BSTAR          = -.40921E-2
MEAN_MOTION_DOT = -.758145E-2
MEAN_MOTION_DDOT = 0

CCSDS_OMM_VERS = 2.0
CREATION_DATE  = 
ORIGINATOR     = 

OBJECT_NAME    = STARLINK-36393
OBJECT_ID      = 2026-034K
CENTER_NAME    = EARTH
REF_FRAME      = TEME
TIME_SYSTEM    = UTC
MEAN_ELEMENT_THEORY = SGP/SGP4

EPOCH          = 2026-03-01T12:00:02.998944
MEAN_MOTION    = 15.81637052
ECCENTRICITY   = .0000871
INCLINATION    = 53.1520
RA_OF_ASC_NODE = 252.3218
ARG_OF_PERICENTER = 90.8722
MEAN_ANOMALY   = 232.8442

EPHEMERIS_TYPE = 0
CLASSIFICATION_TYPE = U
NORAD_CAT_ID   = 67859
ELEMENT_SET_NO = 999
REV_AT_EPOCH   = 254
BSTAR          = -.52941E-2
MEAN_MOTION_DOT = -.968945E-2
MEAN_MOTION_DDOT = 0

CCSDS_OMM_VERS = 2.0
CREATION_DATE  = 
ORIGINATOR     = 

OBJECT_NAME    = STARLINK-35873
OBJECT_ID      = 2026-034L
CENTER_NAME    = EARTH
REF_FRAME      = TEME
TIME_SYSTEM    = UTC
MEAN_ELEMENT_THEORY = SGP/SGP4

EPOCH          = 2026-03-01T12:00:02.998944
MEAN_MOTION    = 15.81982143
ECCENTRICITY   = .0000792
INCLINATION    = 53.1518
RA_OF_ASC_NODE = 252.3136
ARG_OF_PERICENTER = 89.0789
MEAN_ANOMALY   = 238.6152

EPHEMERIS_TYPE = 0
CLASSIFICATION_TYPE = U
NORAD_CAT_ID   = 67860
ELEMENT_SET_NO = 999
REV_AT_EPOCH   = 268
BSTAR          = -.69399E-2
MEAN_MOTION_DOT = -.1273144E-1
MEAN_MOTION_DDOT = 0

CCSDS_OMM_VERS = 2.0
CREATION_DATE  = 
ORIGINATOR     = 

OBJECT_NAME    = STARLINK-36325
OBJECT_ID      = 2026-034M
CENTER_NAME    = EARTH
REF_FRAME      = TEME
TIME_SYSTEM    = UTC
MEAN_ELEMENT_THEORY = SGP/SGP4

EPOCH          = 2026-03-01T12:00:02.998944
MEAN_MOTION    = 15.82250436
ECCENTRICITY   = .0000896
INCLINATION    = 53.1518
RA_OF_ASC_NODE = 252.3051
ARG_OF_PERICENTER = 85.7016
MEAN_ANOMALY   = 245.9590

EPHEMERIS_TYPE = 0
CLASSIFICATION_TYPE = U
NORAD_CAT_ID   = 67861
ELEMENT_SET_NO = 999
REV_AT_EPOCH   = 254
BSTAR          = -.77085E-2
MEAN_MOTION_DOT = -.1439689E-1
MEAN_MOTION_DDOT = 0

CCSDS_OMM_VERS = 2.0
CREATION_DATE  = 
ORIGINATOR     = 

OBJECT_NAME    = STARLINK-36332
OBJECT_ID      = 2026-034N
CENTER_NAME    = EARTH
REF_FRAME      = TEME
TIME_SYSTEM    = UTC
MEAN_ELEMENT_THEORY = SGP/SGP4

EPOCH          = 2026-03-01T12:00:02.998944
MEAN_MOTION    = 15.82478111
ECCENTRICITY   = .0000673
INCLINATION    = 53.1514
RA_OF_ASC_NODE = 252.2972
ARG_OF_PERICENTER = 78.9137
MEAN_ANOMALY   = 256.6887

EPHEMERIS_TYPE = 0
CLASSIFICATION_TYPE = U
NORAD_CAT_ID   = 67862
ELEMENT_SET_NO = 999
REV_AT_EPOCH   = 254
BSTAR          = -.78228E-2
MEAN_MOTION_DOT = -.1472438E-1
MEAN_MOTION_DDOT = 0

CCSDS_OMM_VERS = 2.0
CREATION_DATE  = 
ORIGINATOR     = 

OBJECT_NAME    = STARLINK-36835
OBJECT_ID      = 2026-034P
CENTER_NAME    = EARTH
REF_FRAME      = TEME
TIME_SYSTEM    = UTC
MEAN_ELEMENT_THEORY = SGP/SGP4

EPOCH          = 2026-03-01T12:00:02.998944
MEAN_MOTION    = 15.82662862
ECCENTRICITY   = .0000855
INCLINATION    = 53.1511
RA_OF_ASC_NODE = 252.2882
ARG_OF_PERICENTER = 101.0059
MEAN_ANOMALY   = 238.5078

EPHEMERIS_TYPE = 0
CLASSIFICATION_TYPE = U
NORAD_CAT_ID   = 67863
ELEMENT_SET_NO = 999
REV_AT_EPOCH   = 254
BSTAR          = -.77841E-2
MEAN_MOTION_DOT = -.1477515E-1
MEAN_MOTION_DDOT = 0

CCSDS_OMM_VERS = 2.0
CREATION_DATE  = 
ORIGINATOR     = 

OBJECT_NAME    = STARLINK-36831
OBJECT_ID      = 2026-034Q
CENTER_NAME    = EARTH
REF_FRAME      = TEME
TIME_SYSTEM    = UTC
MEAN_ELEMENT_THEORY = SGP/SGP4

EPOCH          = 2026-03-01T12:00:02.998944
MEAN_MOTION    = 15.82900214
ECCENTRICITY   = .0000636
INCLINATION    = 53.1507
RA_OF_ASC_NODE = 252.2807
ARG_OF_PERICENTER = 86.0981
MEAN_ANOMALY   = 257.2289

EPHEMERIS_TYPE = 0
CLASSIFICATION_TYPE = U
NORAD_CAT_ID   = 67864
ELEMENT_SET_NO = 999
REV_AT_EPOCH   = 254
BSTAR          = -.79116E-2
MEAN_MOTION_DOT = -.1513684E-1
MEAN_MOTION_DDOT = 0

